NORAD_CAT_ID,OBJECT_NAME,OBJECT_TYPE,EPOCH,MEAN_MOTION,ECCENTRICITY,INCLINATION,RA_OF_ASC_NODE,ARG_OF_PERICENTER,MEAN_ANOMALY,BSTAR,MEAN_MOTION_DOT,MEAN_MOTION_DDOT,TLE_LINE0,TLE_LINE1,TLE_LINE2,SEMIMAJOR_AXIS,PERIOD,APOGEE,PERIGEE,DECAYED
51718.0,STARLINK-3546,PAYLOAD,2023-08-05 08:37:23,15.0885627,0.000138,53.2159,261.8546,91.6342,268.4809,-3.4229e-05,-8.33e-06,0.0,0 STARLINK-3546,1 51718U 22016E   23217.35929469 -.00000833  00000-0 -34229-4 0  9995,2 51718  53.2159 261.8546 0001380  91.6342 268.4809 15.08856270 81477,6917.831,95.437,540.65,538.741,0.0
51718.0,STARLINK-3546,PAYLOAD,2023-08-05 13:23:31,15.08869553,0.0001618,53.2162,260.9628,100.729,259.3885,-0.00012743,-2.317e-05,0.0,0 STARLINK-3546,1 51718U 22016E   23217.55800483 -.00002317  00000-0 -12743-3 0  9996,2 51718  53.2162 260.9628 0001618 100.7290 259.3885 15.08869553 81505,6917.79,95.436,540.774,538.536,0.0
51718.0,STARLINK-3546,PAYLOAD,2023-08-06 03:42:01,15.08836274,0.0001152,53.2138,258.2848,102.0246,258.0876,0.00010627,1.404e-05,0.0,0 STARLINK-3546,1 51718U 22016E   23218.15418186  .00001404  00000-0  10627-3 0  9991,2 51718  53.2138 258.2848 0001152 102.0246 258.0876 15.08836274 81590,6917.892,95.438,540.554,538.96,0.0
51718.0,STARLINK-3546,PAYLOAD,2023-08-07 09:54:21,15.08837677,0.0001301,53.2148,252.636,104.7892,255.3244,-3.8355e-05,-8.98e-06,0.0,0 STARLINK-3546,1 51718U 22016E   23219.41274417 -.00000898  00000-0 -38355-4 0  9995,2 51718  53.2148 252.6360 0001301 104.7892 255.3244 15.08837677 81788,6917.887,95.438,540.653,538.852,0.0
51718.0,STARLINK-3546,PAYLOAD,2023-08-08 11:20:31,15.08842844,0.0001169,53.2144,247.8777,93.1358,266.9768,0.00015701,2.212e-05,0.0,0 STARLINK-3546,1 51718U 22016E   23220.47258487  .00002212  00000-0  15701-3 0  9991,2 51718  53.2144 247.8777 0001169  93.1358 266.9768 15.08842844 81941,6917.872,95.437,540.545,538.928,0.0
51718.0,STARLINK-3546,PAYLOAD,2023-08-08 19:17:27,15.08839458,0.0001149,53.2149,246.391,93.7548,266.3576,3.9835e-05,3.46e-06,0.0,0 STARLINK-3546,1 51718U 22016E   23220.80378874  .00000346  00000-0  39835-4 0  9992,2 51718  53.2149 246.3910 0001149  93.7548 266.3576 15.08839458 81997,6917.882,95.438,540.542,538.952,0.0
51718.0,STARLINK-3546,PAYLOAD,2023-08-10 07:51:19,15.08846318,0.0001141,53.2147,239.5514,88.7231,271.3892,0.00013428,1.85e-05,0.0,0 STARLINK-3546,1 51718U 22016E   23222.32730419  .00001850  00000-0  13428-3 0  9998,2 51718  53.2147 239.5514 0001141  88.7231 271.3892 15.08846318 82221,6917.861,95.437,540.515,538.937,0.0
51718.0,STARLINK-3546,PAYLOAD,2023-08-11 07:42:06,15.08837563,0.0001154,53.2154,235.0903,86.3198,273.7926,4.8849e-05,4.9e-06,0.0,0 STARLINK-3546,1 51718U 22016E   23223.32091070  .00000490  00000-0  48849-4 0  9997,2 51718  53.2154 235.0903 0001154  86.3198 273.7926 15.08837563 82374,6917.888,95.438,540.551,538.955,0.0
51718.0,STARLINK-3546,PAYLOAD,2023-08-12 10:43:39,15.08845282,0.0001338,53.2161,230.0342,87.4087,272.7059,2.7165e-05,1.44e-06,0.0,0 STARLINK-3546,1 51718U 22016E   23224.44698599  .00000144  00000-0  27165-4 0  9994,2 51718  53.2161 230.0342 0001338  87.4087 272.7059 15.08845282 82549,6917.864,95.437,540.655,538.804,0.0
51718.0,STARLINK-3546,PAYLOAD,2023-08-13 02:37:31,15.08838831,0.0001215,53.2152,227.0609,87.1195,272.9936,6.4259e-05,7.35e-06,0.0,0 STARLINK-3546,1 51718U 22016E   23225.10938931  .00000735  00000-0  64259-4 0  9996,2 51718  53.2152 227.0609 0001215  87.1195 272.9936 15.08838831 82641,6917.884,95.438,540.589,538.908,0.0
51718.0,STARLINK-3546,PAYLOAD,2023-08-14 02:28:18,15.08835459,0.0001225,53.2158,222.6018,94.6295,265.4837,2.116e-05,4.9e-07,0.0,0 STARLINK-3546,1 51718U 22016E   23226.10299465  .00000049  00000-0  21160-4 0  9991,2 51718  53.2158 222.6018 0001225  94.6295 265.4837 15.08835459 82793,6917.894,95.438,540.607,538.912,0.0
51718.0,STARLINK-3546,PAYLOAD,2023-08-15 07:05:14,15.08843264,0.0001404,53.2157,217.2483,87.5056,272.6097,0.00013762,1.903e-05,0.0,0 STARLINK-3546,1 51718U 22016E   23227.29530882  .00001903  00000-0  13762-3 0  9991,2 51718  53.2157 217.2483 0001404  87.5056 272.6097 15.08843264 82974,6917.87,95.437,540.707,538.764,0.0
51718.0,STARLINK-3546,PAYLOAD,2023-08-15 16:37:33,15.08840225,0.0001249,53.2155,215.4629,89.1677,270.9459,4.5414e-05,4.35e-06,0.0,0 STARLINK-3546,1 51718U 22016E   23227.69275252  .00000435  00000-0  45414-4 0  9991,2 51718  53.2155 215.4629 0001249  89.1677 270.9459 15.08840225 83033,6917.88,95.438,540.609,538.881,0.0
51718.0,STARLINK-3546,PAYLOAD,2023-08-16 22:49:52,15.08835375,0.000288,53.2153,209.814,257.2815,102.7855,-3.7334e-05,-8.83e-06,0.0,0 STARLINK-3546,1 51718U 22016E   23228.95130142 -.00000883  00000-0 -37334-4 0  9990,2 51718  53.2153 209.8140 0002880 257.2815 102.7855 15.08835375 83223,6917.895,95.438,541.752,537.767,0.0
51718.0,STARLINK-3546,PAYLOAD,2023-08-17 09:57:34,15.08851211,0.0001442,53.2156,207.733,87.9681,272.1476,0.00011977,1.619e-05,0.0,0 STARLINK-3546,1 51718U 22016E   23229.41498345  .00001619  00000-0  11977-3 0  9994,2 51718  53.2156 207.7330 0001442  87.9681 272.1476 15.08851211 83291,6917.846,95.437,540.709,538.714,0.0
51718.0,STARLINK-3546,PAYLOAD,2023-08-18 03:26:50,15.08833539,0.0001487,53.2167,204.4637,76.3807,283.7351,-4.1999e-05,-9.56e-06,0.0,0 STARLINK-3546,1 51718U 22016E   23230.14363681 -.00000956  00000-0 -41999-4 0  9993,2 51718  53.2167 204.4637 0001487  76.3807 283.7351 15.08833539 83404,6917.9,95.438,540.794,538.736,0.0
51718.0,STARLINK-3546,PAYLOAD,2023-08-18 09:48:22,15.08840261,0.0001452,53.2152,203.2725,91.0415,269.0744,2.9623e-05,1.84e-06,0.0,0 STARLINK-3546,1 51718U 22016E   23230.40859423  .00000184  00000-0  29623-4 0  9997,2 51718  53.2152 203.2725 0001452  91.0415 269.0744 15.08840261 83441,6917.88,95.438,540.749,538.74,0.0
51718.0,STARLINK-3546,PAYLOAD,2023-08-20 03:08:24,15.08837198,0.0001404,53.216,195.5399,89.5067,270.6086,0.00010854,1.44e-05,0.0,0 STARLINK-3546,1 51718U 22016E   23232.13083933  .00001440  00000-0  10854-3 0  9995,2 51718  53.2160 195.5399 0001404  89.5067 270.6086 15.08837198 83703,6917.889,95.438,540.725,538.783,0.0
51718.0,STARLINK-3546,PAYLOAD,2023-08-21 07:45:20,15.08849588,0.0001317,53.2161,190.1882,92.263,267.8513,0.00037349,5.663e-05,0.0,0 STARLINK-3546,1 51718U 22016E   23233.32315705  .00005663  00000-0  37349-3 0  9991,2 51718  53.2161 190.1882 0001317  92.2630 267.8513 15.08849588 83880,6917.851,95.437,540.627,538.805,0.0
51718.0,STARLINK-3546,PAYLOAD,2023-08-22 04:25:21,15.08839323,0.0001389,53.2159,186.3225,88.8335,271.2816,0.00010545,1.391e-05,0.0,0 STARLINK-3546,1 51718U 22016E   23234.18428224  .00001391  00000-0  10545-3 0  9990,2 51718  53.2159 186.3225 0001389  88.8335 271.2816 15.08839323 84014,6917.882,95.438,540.708,538.787,0.0
51718.0,STARLINK-3546,PAYLOAD,2023-08-24 02:31:33,15.08840636,0.0001409,53.2153,177.6992,88.4447,271.6706,0.00011647,1.566e-05,0.0,0 STARLINK-3546,1 51718U 22016E   23236.10524670  .00001566  00000-0  11647-3 0  9994,2 51718  53.2153 177.6992 0001409  88.4447 271.6706 15.08840636 84364,6917.878,95.438,540.718,538.769,0.0
51718.0,STARLINK-3546,PAYLOAD,2023-08-25 02:22:19,15.08850321,0.0001623,53.2165,173.2408,98.6215,261.4961,0.00024612,3.632e-05,0.0,0 STARLINK-3546,1 51718U 22016E   23237.09884171  .00003632  00000-0  24612-3 0  9990,2 51718  53.2165 173.2408 0001623  98.6215 261.4961 15.08850321 84514,6917.849,95.437,540.837,538.591,0.0
51718.0,STARLINK-3546,PAYLOAD,2023-08-25 19:51:34,15.08845795,0.0001817,53.216,169.9772,66.3161,293.8021,0.00010188,1.334e-05,0.0,0 STARLINK-3546,1 51718U 22016E   23237.82748485  .00001334  00000-0  10188-3 0  9998,2 51718  53.2160 169.9772 0001817  66.3161 293.8021 15.08845795 84562,6917.863,95.437,540.985,538.471,0.0
51718.0,STARLINK-3546,PAYLOAD,2023-08-26 03:48:30,15.08845636,0.0001326,53.2159,168.4802,93.4438,266.6705,5.3618e-05,5.66e-06,0.0,0 STARLINK-3546,1 51718U 22016E   23238.15868117  .00000566  00000-0  53618-4 0  9992,2 51718  53.2159 168.4802 0001326  93.4438 266.6705 15.08845636 84674,6917.863,95.437,540.645,538.811,0.0
51718.0,STARLINK-3546,PAYLOAD,2023-08-27 03:39:16,15.08857849,0.0001541,53.2178,164.0229,107.3976,252.7185,-0.0001238,-2.259e-05,0.0,0 STARLINK-3546,1 51718U 22016E   23239.15227675 -.00002259  00000-0 -12380-3 0  9994,2 51718  53.2178 164.0229 0001541 107.3976 252.7185 15.08857849 84768,6917.826,95.436,540.757,538.625,0.0
51718.0,STARLINK-3546,PAYLOAD,2023-08-27 05:14:44,15.08709858,0.0002325,53.2171,163.7229,91.9055,268.2203,0.0022229,0.00035141,0.0,0 STARLINK-3546,1 51718U 22016E   23239.21856739  .00035141  00000-0  22229-2 0  9996,2 51718  53.2171 163.7229 0002325  91.9055 268.2203 15.08709858 84774,6918.278,95.446,541.752,538.535,0.0
51718.0,STARLINK-3546,PAYLOAD,2023-08-27 19:33:09,15.08837295,0.0001581,53.2181,161.0445,96.5645,263.5527,-2.7828e-05,-7.31e-06,0.0,0 STARLINK-3546,1 51718U 22016E   23239.81468952 -.00000731  00000-0 -27828-4 0  9999,2 51718  53.2181 161.0445 0001581  96.5645 263.5527 15.08837295 84926,6917.889,95.438,540.847,538.66,0.0
51718.0,STARLINK-3546,PAYLOAD,2023-08-28 01:54:41,15.08835462,0.0001252,53.2173,159.8587,97.8721,262.2413,3.9248e-05,3.37e-06,0.0,0 STARLINK-3546,1 51718U 22016E   23240.07964871  .00000337  00000-0  39248-4 0  9999,2 51718  53.2173 159.8587 0001252  97.8721 262.2413 15.08835462 84905,6917.894,95.438,540.625,538.893,0.0
51718.0,STARLINK-3546,PAYLOAD,2023-08-28 11:27:01,15.08827103,0.0001203,53.2168,158.0726,93.1295,266.9835,-3.8423e-06,-3.49e-06,0.0,0 STARLINK-3546,1 51718U 22016E   23240.47709600 -.00000349  00000-0 -38423-5 0  9990,2 51718  53.2168 158.0726 0001203  93.1295 266.9835 15.08827103 84964,6917.92,95.438,540.617,538.953,0.0
51718.0,STARLINK-3546,PAYLOAD,2023-08-29 01:45:28,15.08844949,0.0001177,53.2161,155.3968,97.1992,262.9134,6.3079e-05,7.16e-06,0.0,0 STARLINK-3546,1 51718U 22016E   23241.07324586  .00000716  00000-0  63079-4 0  9993,2 51718  53.2161 155.3968 0001177  97.1992 262.9134 15.08844949 85059,6917.865,95.437,540.544,538.916,0.0
